{
    "links": {
        "self": "http://www.neowsapp.com/rest/v1/neo/3467227?api_key=iIulBulltgU6a56xZRHN4H3l9WmuAYTsLGpBGhQ2"
    },
    "id": "3467227",
    "neo_reference_id": "3467227",
    "name": "(2009 SW1)",
    "designation": "2009 SW1",
    "nasa_jpl_url": "http://ssd.jpl.nasa.gov/sbdb.cgi?sstr=3467227",
    "absolute_magnitude_h": 23.7,
    "estimated_diameter": {
        "kilometers": {
            "estimated_diameter_min": 0.0483676488,
            "estimated_diameter_max": 0.1081533507
        },
        "meters": {
            "estimated_diameter_min": 48.3676488219,
            "estimated_diameter_max": 108.1533506775
        },
        "miles": {
            "estimated_diameter_min": 0.0300542543,
            "estimated_diameter_max": 0.0672033557
        },
        "feet": {
            "estimated_diameter_min": 158.6865169607,
            "estimated_diameter_max": 354.8338390368
        }
    },
    "is_potentially_hazardous_asteroid": false,
    "close_approach_data": [
        {
            "close_approach_date": "2009-09-04",
            "close_approach_date_full": "2009-Sep-04 19:24",
            "epoch_date_close_approach": 1252092240000,
            "relative_velocity": {
                "kilometers_per_second": "10.9205972993",
                "kilometers_per_hour": "39314.1502773666",
                "miles_per_hour": "24428.2840987337"
            },
            "miss_distance": {
                "astronomical": "0.0247870926",
                "lunar": "9.6421790214",
                "kilometers": "3708096.256452762",
                "miles": "2304104.1710296356"
            },
            "orbiting_body": "Earth"
        },
        {
            "close_approach_date": "2012-10-08",
            "close_approach_date_full": "2012-Oct-08 15:33",
            "epoch_date_close_approach": 1349710380000,
            "relative_velocity": {
                "kilometers_per_second": "23.9461064171",
                "kilometers_per_hour": "86205.9831014174",
                "miles_per_hour": "53565.0454443224"
            },
            "miss_distance": {
                "astronomical": "0.4214019861",
                "lunar": "163.9253725929",
                "kilometers": "63040839.534329607",
                "miles": "39171761.2679262966"
            },
            "orbiting_body": "Earth"
        },
        {
            "close_approach_date": "2126-05-17",
            "close_approach_date_full": "2126-May-17 06:30",
            "epoch_date_close_approach": 4934673000000,
            "relative_velocity": {
                "kilometers_per_second": "22.6643376251",
                "kilometers_per_hour": "81591.6154503704",
                "miles_per_hour": "50697.8568335927"
            },
            "miss_distance": {
                "astronomical": "0.3788604223",
                "lunar": "147.3767042747",
                "kilometers": "56676712.203380501",
                "miles": "35217275.9163968738"
            },
            "orbiting_body": "Earth"
        }
    ],
    "orbital_data": {
        "orbit_id": "18",
        "orbit_determination_date": "2017-04-06 08:59:57",
        "first_observation_date": "2009-09-18",
        "last_observation_date": "2009-10-16",
        "data_arc_in_days": 28,
        "observations_used": 48,
        "orbit_uncertainty": "7",
        "minimum_orbit_intersection": ".0178632",
        "jupiter_tisserand_invariant": "3.511",
        "epoch_osculation": "2459000.5",
        "eccentricity": ".5681236273058679",
        "semi_major_axis": "2.11234907044236",
        "inclination": "2.063203277760448",
        "ascending_node_longitude": "316.7594447805259",
        "orbital_period": "1121.364901827796",
        "perihelion_distance": ".9122736544064682",
        "perihelion_argument": "347.618867579927",
        "aphelion_distance": "3.312424486478251",
        "perihelion_time": "2459538.340766931210",
        "mean_anomaly": "187.3330333599389",
        "mean_motion": ".3210373353162822",
        "equinox": "J2000",
        "orbit_class": {
            "orbit_class_type": "APO",
            "orbit_class_description": "Near-Earth asteroid orbits which cross the Earth’s orbit similar to that of 1862 Apollo",
            "orbit_class_range": "a (semi-major axis) > 1.0 AU; q (perihelion) < 1.017 AU"
        }
    },
    "is_sentry_object": false
}